{"type": "FeatureCollection", "features": [ {"type": "Feature", "properties": {"norad_id": 67131, "name": "ZIYUAN 3-04 (ZY 3-04)", "group": "last-30-days", "lat": -47.875538481377546, "lon": 82.11453878550208, "alt_km": 510.88935820168354, "timestamp": "2025-12-25T16:53:13.376237+00:00", "meta": {"OBJECT_NAME": "ZIYUAN 3-04 (ZY 3-04)", "OBJECT_ID": "2025-300A", "EPOCH": "2025-12-21T18:22:34.187808", "MEAN_MOTION": 15.21179479, "ECCENTRICITY": 0.00027623, "INCLINATION": 97.4922, "RA_OF_ASC_NODE": 69.8294, "ARG_OF_PERICENTER": 167.6924, "MEAN_ANOMALY": 192.438, "EPHEMERIS_TYPE": 0, "CLASSIFICATION_TYPE": "U", "NORAD_CAT_ID": 67131, "ELEMENT_SET_NO": 999, "REV_AT_EPOCH": 86, "BSTAR": 6.5769783e-05, "MEAN_MOTION_DOT": 1.396e-05, "MEAN_MOTION_DDOT": 0}, "tle": {"line1": "1 67131U 25300A   25355.76567347  .00001396  00000+0  65770-4 0  9990", "line2": "2 67131  97.4922  69.8294 0002762 167.6924 192.4380 15.21179479   860"}}, "geometry": {"type": "Point", "coordinates": [82.11453878550208, -47.875538481377546]}}, {"type": "Feature", "properties": {"norad_id": 67132, "name": "CZ-4B R/B", "group": "last-30-days", "lat": -53.40986781325494, "lon": 84.79434019715198, "alt_km": 288.3732399009368, "timestamp": "2025-12-25T16:53:13.376247+00:00", "meta": {"OBJECT_NAME": "CZ-4B R/B", "OBJECT_ID": "2025-300B", "EPOCH": "2025-12-18T16:13:04.609056", "MEAN_MOTION": 15.63831828, "ECCENTRICITY": 0.01741973, "INCLINATION": 97.5563, "RA_OF_ASC_NODE": 66.966, "ARG_OF_PERICENTER": 9.3582, "MEAN_ANOMALY": 351.0851, "EPHEMERIS_TYPE": 0, "CLASSIFICATION_TYPE": "U", "NORAD_CAT_ID": 67132, "ELEMENT_SET_NO": 999, "REV_AT_EPOCH": 40, "BSTAR": 0.00019566238, "MEAN_MOTION_DOT": 0.00040543, "MEAN_MOTION_DDOT": 2.652968e-06}, "tle": {"line1": "1 67132U 25300B   25352.67574779  .00040543  26530-5  19566-3 0  9995", "line2": "2 67132  97.5563  66.9660 0174197   9.3582 351.0851 15.63831828   407"}}, "geometry": {"type": "Point", "coordinates": [84.79434019715198, -53.40986781325494]}}, {"type": "Feature", "properties": {"norad_id": 67133, "name": "KUIPER-00144", "group": "last-30-days", "lat": -48.38513663838818, "lon": -55.22093195553843, "alt_km": 467.05359529939415, "timestamp": "2025-12-25T16:53:13.376260+00:00", "meta": {"OBJECT_NAME": "KUIPER-00144", "OBJECT_ID": "2025-301A", "EPOCH": "2025-12-25T06:00:04.000320", "MEAN_MOTION": 15.35396386, "ECCENTRICITY": 0.00063547, "INCLINATION": 51.8701, "RA_OF_ASC_NODE": 64.8056, "ARG_OF_PERICENTER": 119.8166, "MEAN_ANOMALY": 143.2738, "EPHEMERIS_TYPE": 0, "CLASSIFICATION_TYPE": "U", "NORAD_CAT_ID": 67133, "ELEMENT_SET_NO": 999, "REV_AT_EPOCH": 169, "BSTAR": 0.00067992273, "MEAN_MOTION_DOT": 0.0002344, "MEAN_MOTION_DDOT": 0}, "tle": {"line1": "1 67133U 25301A   25359.25004630  .00023440  00000+0  67992-3 0  9993", "line2": "2 67133  51.8701  64.8056 0006354 119.8166 143.2738 15.35396386  1696"}}, "geometry": {"type": "Point", "coordinates": [-55.22093195553843, -48.38513663838818]}}, {"type": "Feature", "properties": {"norad_id": 67134, "name": "KUIPER-00164", "group": "last-30-days", "lat": -51.36817202945701, "lon": -16.78597273556386, "alt_km": 464.4965168527715, "timestamp": "2025-12-25T16:53:13.376270+00:00", "meta": {"OBJECT_NAME": "KUIPER-00164", "OBJECT_ID": "2025-301B", "EPOCH": "2025-12-25T06:00:04.000320", "MEAN_MOTION": 15.36097974, "ECCENTRICITY": 0.00033403, "INCLINATION": 51.8723, "RA_OF_ASC_NODE": 64.7553, "ARG_OF_PERICENTER": 103.893, "MEAN_ANOMALY": 182.8377, "EPHEMERIS_TYPE": 0, "CLASSIFICATION_TYPE": "U", "NORAD_CAT_ID": 67134, "ELEMENT_SET_NO": 999, "REV_AT_EPOCH": 246, "BSTAR": 0.0006494519, "MEAN_MOTION_DOT": 0.00022876, "MEAN_MOTION_DDOT": 0}, "tle": {"line1": "1 67134U 25301B   25359.25004630  .00022876  00000+0  64945-3 0  9991", "line2": "2 67134  51.8723  64.7553 0003340 103.8930 182.8377 15.36097974  2462"}}, "geometry": {"type": "Point", "coordinates": [-16.78597273556386, -51.36817202945701]}}, {"type": "Feature", "properties": {"norad_id": 67135, "name": "KUIPER-00175", "group": "last-30-days", "lat": -46.255325061499285, "lon": 7.3822384379231, "alt_km": 461.6515565091004, "timestamp": "2025-12-25T16:53:13.376280+00:00", "meta": {"OBJECT_NAME": "KUIPER-00175", "OBJECT_ID": "2025-301C", "EPOCH": "2025-12-25T06:00:04.000320", "MEAN_MOTION": 15.36564516, "ECCENTRICITY": 0.0002223, "INCLINATION": 51.8742, "RA_OF_ASC_NODE": 64.716, "ARG_OF_PERICENTER": 60.4148, "MEAN_ANOMALY": 242.2619, "EPHEMERIS_TYPE": 0, "CLASSIFICATION_TYPE": "U", "NORAD_CAT_ID": 67135, "ELEMENT_SET_NO": 999, "REV_AT_EPOCH": 235, "BSTAR": 0.00063595891, "MEAN_MOTION_DOT": 0.00022734, "MEAN_MOTION_DDOT": 0}, "tle": {"line1": "1 67135U 25301C   25359.25004630  .00022734  00000+0  63596-3 0  9996", "line2": "2 67135  51.8742  64.7160 0002223  60.4148 242.2619 15.36564516  2355"}}, "geometry": {"type": "Point", "coordinates": [7.3822384379231, -46.255325061499285]}}, {"type": "Feature", "properties": {"norad_id": 67136, "name": "KUIPER-00179", "group": "last-30-days", "lat": -49.95823833231972, "lon": -6.618162322415047, "alt_km": 463.67533532227935, "timestamp": "2025-12-25T16:53:13.376290+00:00", "meta": {"OBJECT_NAME": "KUIPER-00179", "OBJECT_ID": "2025-301D", "EPOCH": "2025-12-25T06:00:04.000320", "MEAN_MOTION": 15.36280172, "ECCENTRICITY": 0.00030571, "INCLINATION": 51.8737, "RA_OF_ASC_NODE": 64.7384, "ARG_OF_PERICENTER": 86.1479, "MEAN_ANOMALY": 206.9151, "EPHEMERIS_TYPE": 0, "CLASSIFICATION_TYPE": "U", "NORAD_CAT_ID": 67136, "ELEMENT_SET_NO": 999, "REV_AT_EPOCH": 246, "BSTAR": 0.00063950505, "MEAN_MOTION_DOT": 0.00022652, "MEAN_MOTION_DDOT": 0}, "tle": {"line1": "1 67136U 25301D   25359.25004630  .00022652  00000+0  63951-3 0  9991", "line2": "2 67136  51.8737  64.7384 0003057  86.1479 206.9151 15.36280172  2469"}}, "geometry": {"type": "Point", "coordinates": [-6.618162322415047, -49.95823833231972]}}, {"type": "Feature", "properties": {"norad_id": 67137, "name": "KUIPER-00181", "group": "last-30-days", "lat": -28.350745647731856, "lon": -92.22602028246668, "alt_km": 464.48727319862155, "timestamp": "2025-12-25T16:53:13.376303+00:00", "meta": {"OBJECT_NAME": "KUIPER-00181", "OBJECT_ID": "2025-301E", "EPOCH": "2025-12-25T06:00:04.000320", "MEAN_MOTION": 15.3438717, "ECCENTRICITY": 0.00101246, "INCLINATION": 51.8637, "RA_OF_ASC_NODE": 64.875, "ARG_OF_PERICENTER": 140.3022, "MEAN_ANOMALY": 89.5493, "EPHEMERIS_TYPE": 0, "CLASSIFICATION_TYPE": "U", "NORAD_CAT_ID": 67137, "ELEMENT_SET_NO": 999, "REV_AT_EPOCH": 244, "BSTAR": 0.00067402982, "MEAN_MOTION_DOT": 0.00022507, "MEAN_MOTION_DDOT": 0}, "tle": {"line1": "1 67137U 25301E   25359.25004630  .00022507  00000+0  67403-3 0  9997", "line2": "2 67137  51.8637  64.8750 0010124 140.3022  89.5493 15.34387170  2443"}}, "geometry": {"type": "Point", "coordinates": [-92.22602028246668, -28.350745647731856]}}, {"type": "Feature", "properties": {"norad_id": 67138, "name": "KUIPER-00183", "group": "last-30-days", "lat": -20.003240576597964, "lon": -100.66608453942284, "alt_km": 462.5189698695476, "timestamp": "2025-12-25T16:53:13.376315+00:00", "meta": {"OBJECT_NAME": "KUIPER-00183", "OBJECT_ID": "2025-301F", "EPOCH": "2025-12-25T06:00:04.000320", "MEAN_MOTION": 15.34047823, "ECCENTRICITY": 0.00114253, "INCLINATION": 51.8611, "RA_OF_ASC_NODE": 64.8966, "ARG_OF_PERICENTER": 145.8519, "MEAN_ANOMALY": 73.1856, "EPHEMERIS_TYPE": 0, "CLASSIFICATION_TYPE": "U", "NORAD_CAT_ID": 67138, "ELEMENT_SET_NO": 999, "REV_AT_EPOCH": 245, "BSTAR": 0.00059588857, "MEAN_MOTION_DOT": 0.00019638, "MEAN_MOTION_DDOT": 0}, "tle": {"line1": "1 67138U 25301F   25359.25004630  .00019638  00000+0  59589-3 0  9995", "line2": "2 67138  51.8611  64.8966 0011425 145.8519  73.1856 15.34047823  2452"}}, "geometry": {"type": "Point", "coordinates": [-100.66608453942284, -20.003240576597964]}}, {"type": "Feature", "properties": {"norad_id": 67139, "name": "KUIPER-00184", "group": "last-30-days", "lat": -31.42206664993205, "lon": -88.63225531938097, "alt_km": 465.03626795734635, "timestamp": "2025-12-25T16:53:13.376325+00:00", "meta": {"OBJECT_NAME": "KUIPER-00184", "OBJECT_ID": "2025-301G", "EPOCH": "2025-12-25T06:00:04.000320", "MEAN_MOTION": 15.34483314, "ECCENTRICITY": 0.00090807, "INCLINATION": 51.8624, "RA_OF_ASC_NODE": 64.8663, "ARG_OF_PERICENTER": 140.4244, "MEAN_ANOMALY": 93.6647, "EPHEMERIS_TYPE": 0, "CLASSIFICATION_TYPE": "U", "NORAD_CAT_ID": 67139, "ELEMENT_SET_NO": 999, "REV_AT_EPOCH": 256, "BSTAR": 0.00065488888, "MEAN_MOTION_DOT": 0.00021916, "MEAN_MOTION_DDOT": 0}, "tle": {"line1": "1 67139U 25301G   25359.25004630  .00021916  00000+0  65489-3 0  9994", "line2": "2 67139  51.8624  64.8663 0009080 140.4244  93.6647 15.34483314  2567"}}, "geometry": {"type": "Point", "coordinates": [-88.63225531938097, -31.42206664993205]}}, {"type": "Feature", "properties": {"norad_id": 67140, "name": "KUIPER-00186", "group": "last-30-days", "lat": -42.03744261662643, "lon": -72.2609564063324, "alt_km": 466.97675624836575, "timestamp": "2025-12-25T16:53:13.376337+00:00", "meta": {"OBJECT_NAME": "KUIPER-00186", "OBJECT_ID": "2025-301H", "EPOCH": "2025-12-25T06:00:04.000320", "MEAN_MOTION": 15.34968236, "ECCENTRICITY": 0.00077574, "INCLINATION": 51.868, "RA_OF_ASC_NODE": 64.8329, "ARG_OF_PERICENTER": 128.0303, "MEAN_ANOMALY": 122.154, "EPHEMERIS_TYPE": 0, "CLASSIFICATION_TYPE": "U", "NORAD_CAT_ID": 67140, "ELEMENT_SET_NO": 999, "REV_AT_EPOCH": 130, "BSTAR": 0.00066274921, "MEAN_MOTION_DOT": 0.00022528, "MEAN_MOTION_DDOT": 0}, "tle": {"line1": "1 67140U 25301H   25359.25004630  .00022528  00000+0  66275-3 0  9990", "line2": "2 67140  51.8680  64.8329 0007757 128.0303 122.1540 15.34968236  1309"}}, "geometry": {"type": "Point", "coordinates": [-72.2609564063324, -42.03744261662643]}}]}